CCSDS_OMM_VERS = 2.0
CREATION_DATE  = 
ORIGINATOR     = 

OBJECT_NAME    = STARLINK-36222
OBJECT_ID      = 2025-298Y
CENTER_NAME    = EARTH
REF_FRAME      = TEME
TIME_SYSTEM    = UTC
MEAN_ELEMENT_THEORY = SGP/SGP4

EPOCH          = 2025-12-28T12:00:02.000160
MEAN_MOTION    = 15.68433729
ECCENTRICITY   = .0003703
INCLINATION    = 69.9992
RA_OF_ASC_NODE = 205.1548
ARG_OF_PERICENTER = 267.5845
MEAN_ANOMALY   = 127.1518

EPHEMERIS_TYPE = 0
CLASSIFICATION_TYPE = U
NORAD_CAT_ID   = 67097
ELEMENT_SET_NO = 999
REV_AT_EPOCH   = 345
BSTAR          = -.16703E-1
MEAN_MOTION_DOT = -.1670951E-1
MEAN_MOTION_DDOT = 0

CCSDS_OMM_VERS = 2.0
CREATION_DATE  = 
ORIGINATOR     = 

OBJECT_NAME    = STARLINK-36205
OBJECT_ID      = 2025-298Z
CENTER_NAME    = EARTH
REF_FRAME      = TEME
TIME_SYSTEM    = UTC
MEAN_ELEMENT_THEORY = SGP/SGP4

EPOCH          = 2025-12-28T12:00:02.000160
MEAN_MOTION    = 15.68428770
ECCENTRICITY   = .0003823
INCLINATION    = 70.0029
RA_OF_ASC_NODE = 205.1527
ARG_OF_PERICENTER = 271.2396
MEAN_ANOMALY   = 125.5463

EPHEMERIS_TYPE = 0
CLASSIFICATION_TYPE = U
NORAD_CAT_ID   = 67098
ELEMENT_SET_NO = 999
REV_AT_EPOCH   = 351
BSTAR          = -.16714E-1
MEAN_MOTION_DOT = -.1671762E-1
MEAN_MOTION_DDOT = 0

CCSDS_OMM_VERS = 2.0
CREATION_DATE  = 
ORIGINATOR     = 

OBJECT_NAME    = STARLINK-36193
OBJECT_ID      = 2025-298AA
CENTER_NAME    = EARTH
REF_FRAME      = TEME
TIME_SYSTEM    = UTC
MEAN_ELEMENT_THEORY = SGP/SGP4

EPOCH          = 2025-12-28T12:00:02.000160
MEAN_MOTION    = 15.61690220
ECCENTRICITY   = .0003846
INCLINATION    = 69.9993
RA_OF_ASC_NODE = 205.2087
ARG_OF_PERICENTER = 266.1699
MEAN_ANOMALY   = 82.3593

EPHEMERIS_TYPE = 0
CLASSIFICATION_TYPE = U
NORAD_CAT_ID   = 67099
ELEMENT_SET_NO = 999
REV_AT_EPOCH   = 345
BSTAR          = -.32313E-1
MEAN_MOTION_DOT = -.2447009E-1
MEAN_MOTION_DDOT = 0

CCSDS_OMM_VERS = 2.0
CREATION_DATE  = 
ORIGINATOR     = 

OBJECT_NAME    = STARLINK-36215
OBJECT_ID      = 2025-298AB
CENTER_NAME    = EARTH
REF_FRAME      = TEME
TIME_SYSTEM    = UTC
MEAN_ELEMENT_THEORY = SGP/SGP4

EPOCH          = 2025-12-28T12:00:02.000160
MEAN_MOTION    = 15.68435626
ECCENTRICITY   = .0003636
INCLINATION    = 69.9990
RA_OF_ASC_NODE = 205.1454
ARG_OF_PERICENTER = 272.0792
MEAN_ANOMALY   = 130.2959

EPHEMERIS_TYPE = 0
CLASSIFICATION_TYPE = U
NORAD_CAT_ID   = 67100
ELEMENT_SET_NO = 999
REV_AT_EPOCH   = 351
BSTAR          = -.1669E-1
MEAN_MOTION_DOT = -.1669836E-1
MEAN_MOTION_DDOT = 0

CCSDS_OMM_VERS = 2.0
CREATION_DATE  = 
ORIGINATOR     = 

OBJECT_NAME    = STARLINK-36200
OBJECT_ID      = 2025-298AC
CENTER_NAME    = EARTH
REF_FRAME      = TEME
TIME_SYSTEM    = UTC
MEAN_ELEMENT_THEORY = SGP/SGP4

EPOCH          = 2025-12-28T12:00:02.000160
MEAN_MOTION    = 15.68436144
ECCENTRICITY   = .0003854
INCLINATION    = 70.0030
RA_OF_ASC_NODE = 205.1511
ARG_OF_PERICENTER = 270.2240
MEAN_ANOMALY   = 128.3941

EPHEMERIS_TYPE = 0
CLASSIFICATION_TYPE = U
NORAD_CAT_ID   = 67101
ELEMENT_SET_NO = 999
REV_AT_EPOCH   = 351
BSTAR          = -.16741E-1
MEAN_MOTION_DOT = -.167463E-1
MEAN_MOTION_DDOT = 0

CCSDS_OMM_VERS = 2.0
CREATION_DATE  = 
ORIGINATOR     = 

OBJECT_NAME    = STARLINK-36255
OBJECT_ID      = 2025-299A
CENTER_NAME    = EARTH
REF_FRAME      = TEME
TIME_SYSTEM    = UTC
MEAN_ELEMENT_THEORY = SGP/SGP4

EPOCH          = 2025-12-28T12:00:02.000160
MEAN_MOTION    = 15.70761098
ECCENTRICITY   = .0001754
INCLINATION    = 42.9990
RA_OF_ASC_NODE = 220.2171
ARG_OF_PERICENTER = 259.2781
MEAN_ANOMALY   = 72.0483

EPHEMERIS_TYPE = 0
CLASSIFICATION_TYPE = U
NORAD_CAT_ID   = 67102
ELEMENT_SET_NO = 999
REV_AT_EPOCH   = 334
BSTAR          = -.17053E-1
MEAN_MOTION_DOT = -.1932425E-1
MEAN_MOTION_DDOT = 0

CCSDS_OMM_VERS = 2.0
CREATION_DATE  = 
ORIGINATOR     = 

OBJECT_NAME    = STARLINK-36256
OBJECT_ID      = 2025-299B
CENTER_NAME    = EARTH
REF_FRAME      = TEME
TIME_SYSTEM    = UTC
MEAN_ELEMENT_THEORY = SGP/SGP4

EPOCH          = 2025-12-28T12:00:02.000160
MEAN_MOTION    = 15.70782507
ECCENTRICITY   = .0001838
INCLINATION    = 42.9991
RA_OF_ASC_NODE = 220.2139
ARG_OF_PERICENTER = 258.4545
MEAN_ANOMALY   = 74.4212

EPHEMERIS_TYPE = 0
CLASSIFICATION_TYPE = U
NORAD_CAT_ID   = 67103
ELEMENT_SET_NO = 999
REV_AT_EPOCH   = 334
BSTAR          = -.17053E-1
MEAN_MOTION_DOT = -.1934056E-1
MEAN_MOTION_DDOT = 0

CCSDS_OMM_VERS = 2.0
CREATION_DATE  = 
ORIGINATOR     = 

OBJECT_NAME    = STARLINK-36258
OBJECT_ID      = 2025-299C
CENTER_NAME    = EARTH
REF_FRAME      = TEME
TIME_SYSTEM    = UTC
MEAN_ELEMENT_THEORY = SGP/SGP4

EPOCH          = 2025-12-28T12:00:02.000160
MEAN_MOTION    = 15.70799417
ECCENTRICITY   = .0001759
INCLINATION    = 42.9993
RA_OF_ASC_NODE = 220.2093
ARG_OF_PERICENTER = 261.1756
MEAN_ANOMALY   = 73.3506

EPHEMERIS_TYPE = 0
CLASSIFICATION_TYPE = U
NORAD_CAT_ID   = 67104
ELEMENT_SET_NO = 999
REV_AT_EPOCH   = 334
BSTAR          = -.17056E-1
MEAN_MOTION_DOT = -.1935553E-1
MEAN_MOTION_DDOT = 0

CCSDS_OMM_VERS = 2.0
CREATION_DATE  = 
ORIGINATOR     = 

OBJECT_NAME    = STARLINK-36261
OBJECT_ID      = 2025-299D
CENTER_NAME    = EARTH
REF_FRAME      = TEME
TIME_SYSTEM    = UTC
MEAN_ELEMENT_THEORY = SGP/SGP4

EPOCH          = 2025-12-28T12:00:02.000160
MEAN_MOTION    = 15.70821114
ECCENTRICITY   = .0001845
INCLINATION    = 42.9991
RA_OF_ASC_NODE = 220.2059
ARG_OF_PERICENTER = 257.4789
MEAN_ANOMALY   = 78.5525

EPHEMERIS_TYPE = 0
CLASSIFICATION_TYPE = U
NORAD_CAT_ID   = 67105
ELEMENT_SET_NO = 999
REV_AT_EPOCH   = 334
BSTAR          = -.17011E-1
MEAN_MOTION_DOT = -.1932662E-1
MEAN_MOTION_DDOT = 0

CCSDS_OMM_VERS = 2.0
CREATION_DATE  = 
ORIGINATOR     = 

OBJECT_NAME    = STARLINK-36259
OBJECT_ID      = 2025-299E
CENTER_NAME    = EARTH
REF_FRAME      = TEME
TIME_SYSTEM    = UTC
MEAN_ELEMENT_THEORY = SGP/SGP4

EPOCH          = 2025-12-28T12:00:02.000160
MEAN_MOTION    = 15.70839844
ECCENTRICITY   = .0001865
INCLINATION    = 42.9991
RA_OF_ASC_NODE = 220.1972
ARG_OF_PERICENTER = 258.7176
MEAN_ANOMALY   = 80.8138

EPHEMERIS_TYPE = 0
CLASSIFICATION_TYPE = U
NORAD_CAT_ID   = 67106
ELEMENT_SET_NO = 999
REV_AT_EPOCH   = 334
BSTAR          = -.17012E-1
MEAN_MOTION_DOT = -.1934186E-1
MEAN_MOTION_DDOT = 0

CCSDS_OMM_VERS = 2.0
CREATION_DATE  = 
ORIGINATOR     = 

OBJECT_NAME    = STARLINK-36196
OBJECT_ID      = 2025-299F
CENTER_NAME    = EARTH
REF_FRAME      = TEME
TIME_SYSTEM    = UTC
MEAN_ELEMENT_THEORY = SGP/SGP4

EPOCH          = 2025-12-28T12:00:02.000160
MEAN_MOTION    = 15.70828482
ECCENTRICITY   = .0001856
INCLINATION    = 42.9989
RA_OF_ASC_NODE = 220.2017
ARG_OF_PERICENTER = 255.0198
MEAN_ANOMALY   = 82.7093

EPHEMERIS_TYPE = 0
CLASSIFICATION_TYPE = U
NORAD_CAT_ID   = 67107
ELEMENT_SET_NO = 999
REV_AT_EPOCH   = 334
BSTAR          = -.16909E-1
MEAN_MOTION_DOT = -.1922985E-1
MEAN_MOTION_DDOT = 0

CCSDS_OMM_VERS = 2.0
CREATION_DATE  = 
ORIGINATOR     = 

OBJECT_NAME    = STARLINK-36208
OBJECT_ID      = 2025-299G
CENTER_NAME    = EARTH
REF_FRAME      = TEME
TIME_SYSTEM    = UTC
MEAN_ELEMENT_THEORY = SGP/SGP4

EPOCH          = 2025-12-28T12:00:02.000160
MEAN_MOTION    = 15.70846909
ECCENTRICITY   = .0001844
INCLINATION    = 42.9991
RA_OF_ASC_NODE = 220.1925
ARG_OF_PERICENTER = 257.4854
MEAN_ANOMALY   = 83.8351

EPHEMERIS_TYPE = 0
CLASSIFICATION_TYPE = U
NORAD_CAT_ID   = 67108
ELEMENT_SET_NO = 999
REV_AT_EPOCH   = 334
BSTAR          = -.16977E-1
MEAN_MOTION_DOT = -.1931172E-1
MEAN_MOTION_DDOT = 0

CCSDS_OMM_VERS = 2.0
CREATION_DATE  = 
ORIGINATOR     = 

OBJECT_NAME    = STARLINK-35764
OBJECT_ID      = 2025-299H
CENTER_NAME    = EARTH
REF_FRAME      = TEME
TIME_SYSTEM    = UTC
MEAN_ELEMENT_THEORY = SGP/SGP4

EPOCH          = 2025-12-28T12:00:02.000160
MEAN_MOTION    = 15.70849069
ECCENTRICITY   = .0001853
INCLINATION    = 42.9993
RA_OF_ASC_NODE = 220.1886
ARG_OF_PERICENTER = 260.5973
MEAN_ANOMALY   = 82.5979

EPHEMERIS_TYPE = 0
CLASSIFICATION_TYPE = U
NORAD_CAT_ID   = 67109
ELEMENT_SET_NO = 999
REV_AT_EPOCH   = 323
BSTAR          = -.16973E-1
MEAN_MOTION_DOT = -.1930849E-1
MEAN_MOTION_DDOT = 0

CCSDS_OMM_VERS = 2.0
CREATION_DATE  = 
ORIGINATOR     = 

OBJECT_NAME    = STARLINK-35781
OBJECT_ID      = 2025-299J
CENTER_NAME    = EARTH
REF_FRAME      = TEME
TIME_SYSTEM    = UTC
MEAN_ELEMENT_THEORY = SGP/SGP4

EPOCH          = 2025-12-28T12:00:02.000160
MEAN_MOTION    = 15.70858820
ECCENTRICITY   = .0001833
INCLINATION    = 42.9988
RA_OF_ASC_NODE = 220.1787
ARG_OF_PERICENTER = 259.1380
MEAN_ANOMALY   = 87.7293

EPHEMERIS_TYPE = 0
CLASSIFICATION_TYPE = U
NORAD_CAT_ID   = 67110
ELEMENT_SET_NO = 999
REV_AT_EPOCH   = 329
BSTAR          = -.16958E-1
MEAN_MOTION_DOT = -.193005E-1
MEAN_MOTION_DDOT = 0

CCSDS_OMM_VERS = 2.0
CREATION_DATE  = 
ORIGINATOR     = 

OBJECT_NAME    = STARLINK-35875
OBJECT_ID      = 2025-299K
CENTER_NAME    = EARTH
REF_FRAME      = TEME
TIME_SYSTEM    = UTC
MEAN_ELEMENT_THEORY = SGP/SGP4

EPOCH          = 2025-12-28T12:00:02.000160
MEAN_MOTION    = 15.70852650
ECCENTRICITY   = .0001875
INCLINATION    = 42.9991
RA_OF_ASC_NODE = 220.1838
ARG_OF_PERICENTER = 260.4371
MEAN_ANOMALY   = 84.6260

EPHEMERIS_TYPE = 0
CLASSIFICATION_TYPE = U
NORAD_CAT_ID   = 67111
ELEMENT_SET_NO = 999
REV_AT_EPOCH   = 323
BSTAR          = -.16981E-1
MEAN_MOTION_DOT = -.1932009E-1
MEAN_MOTION_DDOT = 0

